HST                     
1 20580U 90037B   24166.88446893  .00006483  00000+0  30319-3 0  9992
2 20580  28.4699   0.5604 0002911  16.4869 343.5818 15.17731007676684
